STARLINK-30285          
1 57840U 23141A   26068.85947793 -.00001793  00000+0 -48464-4 0  9990
2 57840  53.1603 283.3513 0001086  75.3285 284.7836 15.30171145140353
2025-313BC              
1 67298U 25313BC  26068.18968176  .00075331  00000+0  26410-2 0  9997
2 67298  97.3985 144.8110 0008478 328.9209  31.1528 15.29126358  7890
